{
  "norad_id": 65995,
  "name": "HULIANWANG DIGUI-87",
  "history": [
    {
      "epoch": "2026-03-27T12:29:20.429376Z",
      "apogee_km": 1149.8376716647826,
      "perigee_km": 1148.7296353445872,
      "latitude_deg": -3.067703711904023e-05,
      "longitude_deg": 96.4768566906077,
      "height_km": 1149.6785494303813,
      "semi_major_axis_km": 7527.420653504685,
      "eccentricity": 7.36e-05,
      "inclination_deg": 49.9985,
      "raan_deg": 108.766,
      "arg_perigee_deg": 281.6318,
      "mean_anomaly_deg": 78.4471,
      "mean_motion_rev_day": 13.29332071
    }
  ]
}